[{"OBJECT_NAME":"LIZZIESAT-1 (LS-1)","OBJECT_ID":"2024-043AL","EPOCH":"2026-03-09T21:24:55.126944","MEAN_MOTION":15.26635712,"ECCENTRICITY":0.00099234,"INCLINATION":97.5461,"RA_OF_ASC_NODE":203.4772,"ARG_OF_PERICENTER":229.9925,"MEAN_ANOMALY":130.0443,"EPHEMERIS_TYPE":0,"CLASSIFICATION_TYPE":"U","NORAD_CAT_ID":59132,"ELEMENT_SET_NO":999,"REV_AT_EPOCH":11178,"BSTAR":0.0002232873,"MEAN_MOTION_DOT":5.784e-5,"MEAN_MOTION_DDOT":0},{"OBJECT_NAME":"STARLINK-35581","OBJECT_ID":"2025-262Z","EPOCH":"2026-03-09T23:15:01.747008","MEAN_MOTION":15.27558466,"ECCENTRICITY":0.00056762,"INCLINATION":42.9998,"RA_OF_ASC_NODE":294.1941,"ARG_OF_PERICENTER":234.896,"MEAN_ANOMALY":125.136,"EPHEMERIS_TYPE":0,"CLASSIFICATION_TYPE":"U","NORAD_CAT_ID":66479,"ELEMENT_SET_NO":999,"REV_AT_EPOCH":1895,"BSTAR":0.0011772313,"MEAN_MOTION_DOT":0.00032265,"MEAN_MOTION_DDOT":0}]
